     4.02           N: GNSS NAV DATA    M: Mixed            RINEX VERSION / TYPE
BNC 2.13.4          user                20260406 090001 UTC PGM / RUN BY / DATE
Source: RTCM_3.3 products.igs-ip.net/BCEP00BKG0             COMMENT
    18                                                      LEAP SECONDS
                                                            END OF HEADER
E03 2026 04 06 09 40 00-9.616371244192e-06-2.245315045002e-12 0.000000000000e+00
     7.500000000000e+01 4.031250000000e+00 3.247992434779e-09-2.421098022576e+00
    -5.029141902924e-08 3.990200348198e-04 6.584450602531e-06 5.440606334686e+03
     1.212000000000e+05-6.332993507385e-08-1.573985374100e+00 3.725290298462e-09
     9.672802285670e-01 2.028750000000e+02 6.843565153387e-02-5.510943838646e-09
     5.578803808143e-10 2.580000000000e+02 2.413000000000e+03 0.000000000000e+00
     3.120000000000e+00 0.000000000000e+00-4.656612873077e-10 0.000000000000e+00
     9.999000000000e+08                                                         
> EPH E04 FNAV
E04 2026 04 06 09 40 00-1.163719571196e-04-1.013233941194e-11 0.000000000000e+00
     7.500000000000e+01-1.221875000000e+01 3.210848030423e-09 8.535546799214e-01
    -5.122274160385e-07 4.129882436246e-04 6.427988409996e-06 5.440604505539e+03
     1.212000000000e+05 4.097819328308e-08-1.573848926268e+00-1.862645149231e-08
     9.673184619310e-01 2.088437500000e+02-8.589492664104e-01-5.489871532328e-09
     5.110927176346e-10 2.580000000000e+02 2.413000000000e+03 0.000000000000e+00
     3.120000000000e+00 0.000000000000e+00-5.587935447693e-09 0.000000000000e+00
     9.999000000000e+08                                                         
> EPH E05 FNAV
E05 2026 04 06 09 40 00 2.513470826671e-05 2.771116669464e-12 0.000000000000e+00
     7.500000000000e+01 1.375000000000e+00 3.218705500575e-09-8.931137417494e-01
    -1.862645149231e-08 3.299015806988e-04 6.427988409996e-06 5.440605323792e+03
     1.212000000000e+05-2.421438694000e-08-1.573974899607e+00-2.607703208923e-08
     9.672938205388e-01 1.996875000000e+02-6.769198795386e-01-5.545945296597e-09
     5.246647115340e-10 2.580000000000e+02 2.413000000000e+03 0.000000000000e+00
     3.120000000000e+00 0.000000000000e+00 1.396983861923e-09 0.000000000000e+00
     9.999000000000e+08                                                         
> EPH E10 FNAV
E10 2026 04 06 09 40 00-7.831180118956e-04-2.643218977028e-12 0.000000000000e+00
     7.500000000000e+01-7.556250000000e+01 2.569749897541e-09 5.749887290114e-01
    -3.598630428314e-06 1.886130776256e-04 2.354383468628e-06 5.440605300903e+03
     1.212000000000e+05 7.264316082001e-08 2.624907509362e+00-6.891787052155e-08
     9.981085075228e-01 3.122500000000e+02 1.111011069659e+00-5.518086993330e-09
    -3.275136422578e-10 2.580000000000e+02 2.413000000000e+03 0.000000000000e+00
     3.120000000000e+00 0.000000000000e+00-3.026798367500e-09 0.000000000000e+00
     9.999000000000e+08                                                         
> EPH E13 FNAV
E13 2026 04 06 09 40 00-5.190429510549e-05-8.242295734817e-13 0.000000000000e+00
     7.500000000000e+01-1.018125000000e+02 2.547963275755e-09-1.763261084296e+00
    -4.630535840988e-06 3.321855328977e-04 1.816079020500e-06 5.440608909607e+03
     1.212000000000e+05-8.754432201385e-08 2.626851328113e+00-4.656612873077e-08
     9.982895728935e-01 3.217812500000e+02-1.009665038087e-01-5.584518331890e-09
    -3.346567969417e-10 2.580000000000e+02 2.413000000000e+03 0.000000000000e+00
     3.600000000000e+00 0.000000000000e+00 2.561137080193e-09 0.000000000000e+00
     9.999000000000e+08                                                         
> EPH E15 FNAV
E15 2026 04 06 09 40 00-2.484747674316e-04-2.927436071332e-12 0.000000000000e+00
     7.500000000000e+01-9.846875000000e+01 2.614037456581e-09-7.804402286967e-01
    -4.669651389122e-06 3.413243684918e-04 2.002343535423e-06 5.440606765747e+03
     1.212000000000e+05-1.676380634308e-08 2.626762648945e+00-4.097819328308e-08
     9.982442429139e-01 3.163125000000e+02-2.816411758740e-01-5.618091158904e-09
    -3.367997433469e-10 2.580000000000e+02 2.413000000000e+03 0.000000000000e+00
     3.120000000000e+00 0.000000000000e+00 4.190951585770e-09 0.000000000000e+00
     9.999000000000e+08                                                         
> EPH E16 FNAV
E16 2026 04 06 09 40 00-2.383487299085e-05-2.501110429876e-12 0.000000000000e+00
     7.500000000000e+01 8.381250000000e+01 2.992267497095e-09 2.316156944434e-01
     3.896653652191e-06 3.710817545652e-04 1.071020960808e-05 5.440615867615e+03
     1.212000000000e+05-2.980232238770e-08 5.241020891500e-01-2.235174179077e-08
     9.639675471290e-01 1.082812500000e+02 3.132067952391e+00-5.352008646928e-09
    -2.821546100149e-10 2.580000000000e+02 2.413000000000e+03 0.000000000000e+00
     3.120000000000e+00 0.000000000000e+00-6.053596735001e-09 0.000000000000e+00
     9.999000000000e+08                                                         
> EPH E21 FNAV
E21 2026 04 06 09 40 00-7.332275272347e-04-2.600586412882e-12 0.000000000000e+00
     7.500000000000e+01 1.056562500000e+02 2.955480250473e-09-1.989938692911e+00
     4.850327968597e-06 1.210847403854e-04 1.139566302299e-05 5.440615455627e+03
     1.212000000000e+05-3.911554813385e-08 5.275726062824e-01-5.587935447693e-08
     9.620214681699e-01 9.662500000000e+01 1.454248954003e+00-5.277005522747e-09
    -3.085842823454e-10 2.580000000000e+02 2.413000000000e+03 0.000000000000e+00
     3.120000000000e+00 0.000000000000e+00 2.328306436539e-10 0.000000000000e+00
     9.999000000000e+08                                                         
> EPH E23 FNAV
E23 2026 04 06 09 40 00-3.073114203289e-05-1.264766069653e-12 0.000000000000e+00
     7.500000000000e+01 9.934375000000e+01 3.003696544589e-09 2.816966832284e+00
     4.660338163376e-06 2.739815972745e-04 1.139938831329e-05 5.440619701385e+03
     1.212000000000e+05-6.891787052155e-08 5.242277567388e-01 2.793967723846e-08
     9.639463816303e-01 9.856250000000e+01 2.141002791234e+00-5.332364971548e-09
    -2.750114553310e-10 2.580000000000e+02 2.413000000000e+03 0.000000000000e+00
     3.120000000000e+00 0.000000000000e+00-9.313225746155e-10 0.000000000000e+00
     9.999000000000e+08                                                         
> EPH E26 FNAV
E26 2026 04 06 09 40 00 2.681675250642e-04 1.085709300241e-11 0.000000000000e+00
     7.500000000000e+01-9.490625000000e+01 2.689397738497e-09-2.233133332750e+00
    -4.315748810768e-06 2.235644496977e-04 1.430511474609e-06 5.440604827881e+03
     1.212000000000e+05-6.146728992462e-08 2.623855767816e+00 1.061707735062e-07
     9.915737782737e-01 3.257187500000e+02-4.140007956978e-01-5.661664402476e-09
    -2.578678840896e-10 2.580000000000e+02 2.413000000000e+03 0.000000000000e+00
     3.120000000000e+00 0.000000000000e+00-6.752088665962e-09 0.000000000000e+00
     9.999000000000e+08                                                         
> EPH S36 SBAS
S36 2026 04 06 09 52 16 0.000000000000e+00 0.000000000000e+00 9.999000000000e+08
     4.200368800000e+04 0.000000000000e+00 0.000000000000e+00 4.700000000000e+01
     3.674846960000e+03 0.000000000000e+00 0.000000000000e+00 8.192000000000e+03
     0.000000000000e+00 0.000000000000e+00 0.000000000000e+00 1.350000000000e+02
> EPH S29 SBAS
S29 2026 04 06 09 52 16 1.909211277962e-08 0.000000000000e+00 9.999000000000e+08
    -4.032414400000e+02-1.082500000000e-03 0.000000000000e+00 4.700000000000e+01
     4.215524832000e+04 4.993750000000e-04 0.000000000000e+00 8.192000000000e+03
     3.364400000000e+00-2.132000000000e-03 0.000000000000e+00 1.500000000000e+01
> EPH E28 FNAV
E28 2026 04 06 09 40 00-3.323238343000e-05-3.097966327914e-12 0.000000000000e+00
     7.500000000000e+01-1.087500000000e+01 3.578006181176e-09-2.857068098366e+00
    -5.811452865601e-07 1.408611424267e-04 6.185844540596e-06 5.440602369308e+03
     1.212000000000e+05 3.352761268616e-08-1.554621002513e+00-2.421438694000e-08
     9.469932998778e-01 2.051875000000e+02-3.068930279162e+00-5.681308077857e-09
     5.050210361533e-10 2.580000000000e+02 2.413000000000e+03 0.000000000000e+00
     3.120000000000e+00 4.800000000000e+01-9.313225746155e-10 0.000000000000e+00
     9.999000000000e+08                                                         
> EPH S22 SBAS
S22 2026 04 06 09 52 16 0.000000000000e+00 0.000000000000e+00 9.999000000000e+08
    -3.389392800000e+04 0.000000000000e+00 0.000000000000e+00 4.700000000000e+01
     2.508018800000e+04 0.000000000000e+00 0.000000000000e+00 8.192000000000e+03
     0.000000000000e+00 0.000000000000e+00 0.000000000000e+00 1.500000000000e+01
> EPH S37 SBAS
S37 2026 04 06 09 52 32 7.916241884232e-09 0.000000000000e+00 9.999000000000e+08
    -2.540947320000e+04-3.987500000000e-04 0.000000000000e+00 4.700000000000e+01
     3.364866784000e+04 5.993750000000e-04 0.000000000000e+00 8.192000000000e+03
    -3.834920000000e+01 2.640000000000e-03 0.000000000000e+00 1.500000000000e+01
> EPH S30 SBAS
S30 2026 04 06 09 53 04-6.682239472866e-07 0.000000000000e+00 9.999000000000e+08
    -3.232047048000e+04-1.192500000000e-03 0.000000000000e+00 4.700000000000e+01
     2.705992336000e+04-1.037500000000e-03 2.500000000000e-08 8.192000000000e+03
     8.308480000000e+01-3.093600000000e-02-1.875000000000e-07 6.200000000000e+01
> EPH S43 SBAS
S43 2026 04 06 09 53 04-7.855705916882e-07 0.000000000000e+00 9.999000000000e+08
    -1.481010616000e+04 9.125000000000e-05-1.250000000000e-08 4.700000000000e+01
     3.945976408000e+04-6.468750000000e-04-8.750000000000e-08 8.192000000000e+03
     7.262624000000e+02 1.086400000000e-01-1.875000000000e-06 6.100000000000e+01
> EPH S44 SBAS
